[{"OBJECT_NAME":"YAOGAN-43 01G","OBJECT_ID":"2024-148G","EPOCH":"2026-03-09T10:38:37.087584","MEAN_MOTION":15.28332833,"ECCENTRICITY":0.00073829,"INCLINATION":35.0006,"RA_OF_ASC_NODE":62.0013,"ARG_OF_PERICENTER":306.3543,"MEAN_ANOMALY":53.6492,"EPHEMERIS_TYPE":0,"CLASSIFICATION_TYPE":"U","NORAD_CAT_ID":60464,"ELEMENT_SET_NO":999,"REV_AT_EPOCH":8700,"BSTAR":0.00035872736,"MEAN_MOTION_DOT":0.00010133,"MEAN_MOTION_DDOT":0},{"OBJECT_NAME":"STARLINK-34525","OBJECT_ID":"2025-139Q","EPOCH":"2026-03-09T10:55:06.741696","MEAN_MOTION":15.30199814,"ECCENTRICITY":0.00011494,"INCLINATION":53.1578,"RA_OF_ASC_NODE":128.4477,"ARG_OF_PERICENTER":87.3536,"MEAN_ANOMALY":272.7596,"EPHEMERIS_TYPE":0,"CLASSIFICATION_TYPE":"U","NORAD_CAT_ID":64678,"ELEMENT_SET_NO":999,"REV_AT_EPOCH":4024,"BSTAR":0.00045252463,"MEAN_MOTION_DOT":0.00013067,"MEAN_MOTION_DDOT":0}]
